[
  {
    "COMMENT": "GENERATED VIA SPACETRACK.ORG API",
    "ORIGINATOR": "JSPOC",
    "NORAD_CAT_ID": "40076",
    "OBJECT_NAME": "TDS 1",
    "OBJECT_TYPE": "PAYLOAD",
    "CLASSIFICATION_TYPE": "U",
    "INTLDES": "14037H",
    "EPOCH": "2014-09-29 20:45:47",
    "EPOCH_MICROSECONDS": "91167",
    "MEAN_MOTION": "14.80409194",
    "ECCENTRICITY": "0.0006935",
    "INCLINATION": "98.3863",
    "RA_OF_ASC_NODE": "328.251",
    "ARG_OF_PERICENTER": "25.7474",
    "MEAN_ANOMALY": "334.4083",
    "EPHEMERIS_TYPE": "0",
    "ELEMENT_SET_NO": "999",
    "REV_AT_EPOCH": "1229",
    "BSTAR": "0.00010007",
    "MEAN_MOTION_DOT": "7.07e-06",
    "MEAN_MOTION_DDOT": "0",
    "FILE": "1754396",
    "TLE_LINE0": "0 TDS 1",
    "TLE_LINE1": "1 40076U 14037H   14272.86512837  .00000707  00000-0  10007-3 0  9993",
    "TLE_LINE2": "2 40076 098.3863 328.2510 0006935 025.7474 334.4083 14.80409194 12298",
    "OBJECT_ID": "2014-037H",
    "OBJECT_NUMBER": "40076",
    "SEMIMAJOR_AXIS": "7006.174",
    "PERIOD": "97.270",
    "APOGEE": "632.898",
    "PERIGEE": "623.180"
  },
  {
    "COMMENT": "GENERATED VIA SPACETRACK.ORG API",
    "ORIGINATOR": "JSPOC",
    "NORAD_CAT_ID": "40076",
    "OBJECT_NAME": "TDS 1",
    "OBJECT_TYPE": "PAYLOAD",
    "CLASSIFICATION_TYPE": "U",
    "INTLDES": "14037H",
    "EPOCH": "2014-09-30 04:52:25",
    "EPOCH_MICROSECONDS": "711968",
    "MEAN_MOTION": "14.8040999",
    "ECCENTRICITY": "0.0006905",
    "INCLINATION": "98.3862",
    "RA_OF_ASC_NODE": "328.6039",
    "ARG_OF_PERICENTER": "24.6495",
    "MEAN_ANOMALY": "335.5061",
    "EPHEMERIS_TYPE": "0",
    "ELEMENT_SET_NO": "999",
    "REV_AT_EPOCH": "1234",
    "BSTAR": "0.00010277",
    "MEAN_MOTION_DOT": "7.28e-06",
    "MEAN_MOTION_DDOT": "0",
    "FILE": "1754528",
    "TLE_LINE0": "0 TDS 1",
    "TLE_LINE1": "1 40076U 14037H   14273.20307537  .00000728  00000-0  10277-3 0  9993",
    "TLE_LINE2": "2 40076 098.3862 328.6039 0006905 024.6495 335.5061 14.80409990 12343",
    "OBJECT_ID": "2014-037H",
    "OBJECT_NUMBER": "40076",
    "SEMIMAJOR_AXIS": "7006.171",
    "PERIOD": "97.270",
    "APOGEE": "632.874",
    "PERIGEE": "623.199"
  },
  {
    "COMMENT": "GENERATED VIA SPACETRACK.ORG API",
    "ORIGINATOR": "JSPOC",
    "NORAD_CAT_ID": "40076",
    "OBJECT_NAME": "TDS 1",
    "OBJECT_TYPE": "PAYLOAD",
    "CLASSIFICATION_TYPE": "U",
    "INTLDES": "14037H",
    "EPOCH": "2014-09-30 12:59:04",
    "EPOCH_MICROSECONDS": "313760",
    "MEAN_MOTION": "14.80410688",
    "ECCENTRICITY": "0.0006894",
    "INCLINATION": "98.3862",
    "RA_OF_ASC_NODE": "328.957",
    "ARG_OF_PERICENTER": "23.8193",
    "MEAN_ANOMALY": "336.3348",
    "EPHEMERIS_TYPE": "0",
    "ELEMENT_SET_NO": "999",
    "REV_AT_EPOCH": "1239",
    "BSTAR": "0.00010453",
    "MEAN_MOTION_DOT": "7.41e-06",
    "MEAN_MOTION_DDOT": "0",
    "FILE": "1754743",
    "TLE_LINE0": "0 TDS 1",
    "TLE_LINE1": "1 40076U 14037H   14273.54102215  .00000741  00000-0  10453-3 0  9997",
    "TLE_LINE2": "2 40076 098.3862 328.9570 0006894 023.8193 336.3348 14.80410688 12397",
    "OBJECT_ID": "2014-037H",
    "OBJECT_NUMBER": "40076",
    "SEMIMAJOR_AXIS": "7006.169",
    "PERIOD": "97.270",
    "APOGEE": "632.864",
    "PERIGEE": "623.204"
  },
  {
    "COMMENT": "GENERATED VIA SPACETRACK.ORG API",
    "ORIGINATOR": "JSPOC",
    "NORAD_CAT_ID": "40076",
    "OBJECT_NAME": "TDS 1",
    "OBJECT_TYPE": "PAYLOAD",
    "CLASSIFICATION_TYPE": "U",
    "INTLDES": "14037H",
    "EPOCH": "2014-09-30 21:05:42",
    "EPOCH_MICROSECONDS": "904319",
    "MEAN_MOTION": "14.80411367",
    "ECCENTRICITY": "0.0006878",
    "INCLINATION": "98.386",
    "RA_OF_ASC_NODE": "329.31",
    "ARG_OF_PERICENTER": "22.8358",
    "MEAN_ANOMALY": "337.3157",
    "EPHEMERIS_TYPE": "0",
    "ELEMENT_SET_NO": "999",
    "REV_AT_EPOCH": "1244",
    "BSTAR": "0.0001071",
    "MEAN_MOTION_DOT": "7.61e-06",
    "MEAN_MOTION_DDOT": "0",
    "FILE": "1754892",
    "TLE_LINE0": "0 TDS 1",
    "TLE_LINE1": "1 40076U 14037H   14273.87896880  .00000761  00000-0  10710-3 0  9999",
    "TLE_LINE2": "2 40076 098.3860 329.3100 0006878 022.8358 337.3157 14.80411367 12443",
    "OBJECT_ID": "2014-037H",
    "OBJECT_NUMBER": "40076",
    "SEMIMAJOR_AXIS": "7006.167",
    "PERIOD": "97.270",
    "APOGEE": "632.851",
    "PERIGEE": "623.213"
  },
  {
    "COMMENT": "GENERATED VIA SPACETRACK.ORG API",
    "ORIGINATOR": "JSPOC",
    "NORAD_CAT_ID": "40076",
    "OBJECT_NAME": "TDS 1",
    "OBJECT_TYPE": "PAYLOAD",
    "CLASSIFICATION_TYPE": "U",
    "INTLDES": "14037H",
    "EPOCH": "2014-10-01 05:12:21",
    "EPOCH_MICROSECONDS": "506111",
    "MEAN_MOTION": "14.80412023",
    "ECCENTRICITY": "0.0006881",
    "INCLINATION": "98.3858",
    "RA_OF_ASC_NODE": "329.6629",
    "ARG_OF_PERICENTER": "21.7093",
    "MEAN_ANOMALY": "338.4417",
    "EPHEMERIS_TYPE": "0",
    "ELEMENT_SET_NO": "999",
    "REV_AT_EPOCH": "1249",
    "BSTAR": "0.00010786",
    "MEAN_MOTION_DOT": "7.67e-06",
    "MEAN_MOTION_DDOT": "0",
    "FILE": "1755014",
    "TLE_LINE0": "0 TDS 1",
    "TLE_LINE1": "1 40076U 14037H   14274.21691558  .00000767  00000-0  10786-3 0  9992",
    "TLE_LINE2": "2 40076 098.3858 329.6629 0006881 021.7093 338.4417 14.80412023 12493",
    "OBJECT_ID": "2014-037H",
    "OBJECT_NUMBER": "40076",
    "SEMIMAJOR_AXIS": "7006.165",
    "PERIOD": "97.270",
    "APOGEE": "632.851",
    "PERIGEE": "623.209"
  },
  {
    "COMMENT": "GENERATED VIA SPACETRACK.ORG API",
    "ORIGINATOR": "JSPOC",
    "NORAD_CAT_ID": "40076",
    "OBJECT_NAME": "TDS 1",
    "OBJECT_TYPE": "PAYLOAD",
    "CLASSIFICATION_TYPE": "U",
    "INTLDES": "14037H",
    "EPOCH": "2014-10-01 13:19:00",
    "EPOCH_MICROSECONDS": "77664",
    "MEAN_MOTION": "14.80412742",
    "ECCENTRICITY": "0.000685",
    "INCLINATION": "98.3859",
    "RA_OF_ASC_NODE": "330.0159",
    "ARG_OF_PERICENTER": "21.145",
    "MEAN_ANOMALY": "339.0054",
    "EPHEMERIS_TYPE": "0",
    "ELEMENT_SET_NO": "999",
    "REV_AT_EPOCH": "1254",
    "BSTAR": "0.00010971",
    "MEAN_MOTION_DOT": "7.81e-06",
    "MEAN_MOTION_DDOT": "0",
    "FILE": "1755199",
    "TLE_LINE0": "0 TDS 1",
    "TLE_LINE1": "1 40076U 14037H   14274.55486201  .00000781  00000-0  10971-3 0  9998",
    "TLE_LINE2": "2 40076 098.3859 330.0159 0006850 021.1450 339.0054 14.80412742 12543",
    "OBJECT_ID": "2014-037H",
    "OBJECT_NUMBER": "40076",
    "SEMIMAJOR_AXIS": "7006.163",
    "PERIOD": "97.270",
    "APOGEE": "632.827",
    "PERIGEE": "623.228"
  },
  {
    "COMMENT": "GENERATED VIA SPACETRACK.ORG API",
    "ORIGINATOR": "JSPOC",
    "NORAD_CAT_ID": "40076",
    "OBJECT_NAME": "TDS 1",
    "OBJECT_TYPE": "PAYLOAD",
    "CLASSIFICATION_TYPE": "U",
    "INTLDES": "14037H",
    "EPOCH": "2014-10-01 21:25:38",
    "EPOCH_MICROSECONDS": "640575",
    "MEAN_MOTION": "14.80413331",
    "ECCENTRICITY": "0.0006831",
    "INCLINATION": "98.3859",
    "RA_OF_ASC_NODE": "330.3689",
    "ARG_OF_PERICENTER": "20.1847",
    "MEAN_ANOMALY": "339.963",
    "EPHEMERIS_TYPE": "0",
    "ELEMENT_SET_NO": "999",
    "REV_AT_EPOCH": "1259",
    "BSTAR": "0.000111",
    "MEAN_MOTION_DOT": "7.91e-06",
    "MEAN_MOTION_DDOT": "0",
    "FILE": "1755443",
    "TLE_LINE0": "0 TDS 1",
    "TLE_LINE1": "1 40076U 14037H   14274.89280834  .00000791  00000-0  11100-3 0  9995",
    "TLE_LINE2": "2 40076 098.3859 330.3689 0006831 020.1847 339.9630 14.80413331 12591",
    "OBJECT_ID": "2014-037H",
    "OBJECT_NUMBER": "40076",
    "SEMIMAJOR_AXIS": "7006.161",
    "PERIOD": "97.270",
    "APOGEE": "632.812",
    "PERIGEE": "623.240"
  },
  {
    "COMMENT": "GENERATED VIA SPACETRACK.ORG API",
    "ORIGINATOR": "JSPOC",
    "NORAD_CAT_ID": "40076",
    "OBJECT_NAME": "TDS 1",
    "OBJECT_TYPE": "PAYLOAD",
    "CLASSIFICATION_TYPE": "U",
    "INTLDES": "14037H",
    "EPOCH": "2014-10-02 05:32:17",
    "EPOCH_MICROSECONDS": "206079",
    "MEAN_MOTION": "14.80414072",
    "ECCENTRICITY": "0.0006839",
    "INCLINATION": "98.3856",
    "RA_OF_ASC_NODE": "330.7219",
    "ARG_OF_PERICENTER": "19.0048",
    "MEAN_ANOMALY": "341.1428",
    "EPHEMERIS_TYPE": "0",
    "ELEMENT_SET_NO": "999",
    "REV_AT_EPOCH": "1264",
    "BSTAR": "0.00011268",
    "MEAN_MOTION_DOT": "8.03e-06",
    "MEAN_MOTION_DDOT": "0",
    "FILE": "1755635",
    "TLE_LINE0": "0 TDS 1",
    "TLE_LINE1": "1 40076U 14037H   14275.23075470  .00000803  00000-0  11268-3 0  9991",
    "TLE_LINE2": "2 40076 098.3856 330.7219 0006839 019.0048 341.1428 14.80414072 12648",
    "OBJECT_ID": "2014-037H",
    "OBJECT_NUMBER": "40076",
    "SEMIMAJOR_AXIS": "7006.158",
    "PERIOD": "97.270",
    "APOGEE": "632.815",
    "PERIGEE": "623.232"
  },
  {
    "COMMENT": "GENERATED VIA SPACETRACK.ORG API",
    "ORIGINATOR": "JSPOC",
    "NORAD_CAT_ID": "40076",
    "OBJECT_NAME": "TDS 1",
    "OBJECT_TYPE": "PAYLOAD",
    "CLASSIFICATION_TYPE": "U",
    "INTLDES": "14037H",
    "EPOCH": "2014-10-02 08:46:56",
    "EPOCH_MICROSECONDS": "608608",
    "MEAN_MOTION": "14.80414322",
    "ECCENTRICITY": "0.0006839",
    "INCLINATION": "98.3855",
    "RA_OF_ASC_NODE": "330.863",
    "ARG_OF_PERICENTER": "18.6015",
    "MEAN_ANOMALY": "341.5446",
    "EPHEMERIS_TYPE": "0",
    "ELEMENT_SET_NO": "999",
    "REV_AT_EPOCH": "1266",
    "BSTAR": "0.00011276",
    "MEAN_MOTION_DOT": "8.04e-06",
    "MEAN_MOTION_DDOT": "0",
    "FILE": "1755685",
    "TLE_LINE0": "0 TDS 1",
    "TLE_LINE1": "1 40076U 14037H   14275.36593297  .00000804  00000-0  11276-3 0  9997",
    "TLE_LINE2": "2 40076 098.3855 330.8630 0006839 018.6015 341.5446 14.80414322 12668",
    "OBJECT_ID": "2014-037H",
    "OBJECT_NUMBER": "40076",
    "SEMIMAJOR_AXIS": "7006.158",
    "PERIOD": "97.270",
    "APOGEE": "632.814",
    "PERIGEE": "623.231"
  }
]
